[{"OBJECT_NAME":"ONEWEB-0171","OBJECT_ID":"2021-025AE","EPOCH":"2025-10-21T17:38:04.433856","MEAN_MOTION":13.13470147,"ECCENTRICITY":0.0001889,"INCLINATION":87.9028,"RA_OF_ASC_NODE":7.6332,"ARG_OF_PERICENTER":102.638,"MEAN_ANOMALY":257.496,"EPHEMERIS_TYPE":0,"CLASSIFICATION_TYPE":"U","NORAD_CAT_ID":48070,"ELEMENT_SET_NO":999,"REV_AT_EPOCH":22231,"BSTAR":0.0011503,"MEAN_MOTION_DOT":4.33e-6,"MEAN_MOTION_DDOT":0},{"OBJECT_NAME":"ONEWEB-0172","OBJECT_ID":"2021-025AF","EPOCH":"2025-10-21T17:08:47.452704","MEAN_MOTION":13.13472558,"ECCENTRICITY":0.0001996,"INCLINATION":87.9042,"RA_OF_ASC_NODE":7.6109,"ARG_OF_PERICENTER":101.3285,"MEAN_ANOMALY":258.8069,"EPHEMERIS_TYPE":0,"CLASSIFICATION_TYPE":"U","NORAD_CAT_ID":48071,"ELEMENT_SET_NO":999,"REV_AT_EPOCH":22320,"BSTAR":0.00033754,"MEAN_MOTION_DOT":1.36e-6,"MEAN_MOTION_DDOT":0},{"OBJECT_NAME":"ONEWEB-0174","OBJECT_ID":"2021-025AG","EPOCH":"2025-10-21T18:31:40.512288","MEAN_MOTION":13.13469621,"ECCENTRICITY":0.0001845,"INCLINATION":87.9038,"RA_OF_ASC_NODE":7.6079,"ARG_OF_PERICENTER":95.4731,"MEAN_ANOMALY":264.6609,"EPHEMERIS_TYPE":0,"CLASSIFICATION_TYPE":"U","NORAD_CAT_ID":48072,"ELEMENT_SET_NO":999,"REV_AT_EPOCH":22253,"BSTAR":-0.0012222,"MEAN_MOTION_DOT":-4.34e-6,"MEAN_MOTION_DDOT":0},{"OBJECT_NAME":"ONEWEB-0175","OBJECT_ID":"2021-025AH","EPOCH":"2025-10-21T17:25:52.764096","MEAN_MOTION":13.13470491,"ECCENTRICITY":0.0001978,"INCLINATION":87.9043,"RA_OF_ASC_NODE":7.5835,"ARG_OF_PERICENTER":110.173,"MEAN_ANOMALY":249.9612,"EPHEMERIS_TYPE":0,"CLASSIFICATION_TYPE":"U","NORAD_CAT_ID":48073,"ELEMENT_SET_NO":999,"REV_AT_EPOCH":22218,"BSTAR":0.00088627,"MEAN_MOTION_DOT":3.36e-6,"MEAN_MOTION_DDOT":0},{"OBJECT_NAME":"ONEWEB-0177","OBJECT_ID":"2021-025AJ","EPOCH":"2025-10-21T17:42:56.440800","MEAN_MOTION":13.13470773,"ECCENTRICITY":0.0001962,"INCLINATION":87.9048,"RA_OF_ASC_NODE":7.5996,"ARG_OF_PERICENTER":96.7672,"MEAN_ANOMALY":263.368,"EPHEMERIS_TYPE":0,"CLASSIFICATION_TYPE":"U","NORAD_CAT_ID":48074,"ELEMENT_SET_NO":999,"REV_AT_EPOCH":22237,"BSTAR":0.00085471,"MEAN_MOTION_DOT":3.25e-6,"MEAN_MOTION_DDOT":0},{"OBJECT_NAME":"ONEWEB-0178","OBJECT_ID":"2021-025AK","EPOCH":"2025-10-21T18:09:56.572992","MEAN_MOTION":13.13467577,"ECCENTRICITY":0.0002103,"INCLINATION":87.9046,"RA_OF_ASC_NODE":7.6414,"ARG_OF_PERICENTER":103.3537,"MEAN_ANOMALY":256.7827,"EPHEMERIS_TYPE":0,"CLASSIFICATION_TYPE":"U","NORAD_CAT_ID":48075,"ELEMENT_SET_NO":999,"REV_AT_EPOCH":22242,"BSTAR":-0.00032113,"MEAN_MOTION_DOT":-1.05e-6,"MEAN_MOTION_DDOT":0},{"OBJECT_NAME":"ONEWEB-0108","OBJECT_ID":"2021-025AL","EPOCH":"2025-10-21T17:11:14.691264","MEAN_MOTION":13.13470754,"ECCENTRICITY":0.0001621,"INCLINATION":87.9045,"RA_OF_ASC_NODE":7.5945,"ARG_OF_PERICENTER":97.9434,"MEAN_ANOMALY":262.1879,"EPHEMERIS_TYPE":0,"CLASSIFICATION_TYPE":"U","NORAD_CAT_ID":48076,"ELEMENT_SET_NO":999,"REV_AT_EPOCH":22234,"BSTAR":0.00014047,"MEAN_MOTION_DOT":6.4e-7,"MEAN_MOTION_DDOT":0},{"OBJECT_NAME":"ONEWEB-0169","OBJECT_ID":"2021-025AM","EPOCH":"2025-10-21T17:57:33.164928","MEAN_MOTION":13.13468139,"ECCENTRICITY":0.0001629,"INCLINATION":87.9044,"RA_OF_ASC_NODE":7.6102,"ARG_OF_PERICENTER":97.8996,"MEAN_ANOMALY":262.2318,"EPHEMERIS_TYPE":0,"CLASSIFICATION_TYPE":"U","NORAD_CAT_ID":48077,"ELEMENT_SET_NO":999,"REV_AT_EPOCH":22100,"BSTAR":0.00062508,"MEAN_MOTION_DOT":2.41e-6,"MEAN_MOTION_DDOT":0},{"OBJECT_NAME":"ONEWEB-0176","OBJECT_ID":"2021-031A","EPOCH":"2025-10-21T13:11:36.229632","MEAN_MOTION":13.14504367,"ECCENTRICITY":0.0001976,"INCLINATION":87.9026,"RA_OF_ASC_NODE":337.2385,"ARG_OF_PERICENTER":99.8539,"MEAN_ANOMALY":260.2814,"EPHEMERIS_TYPE":0,"CLASSIFICATION_TYPE":"U","NORAD_CAT_ID":48210,"ELEMENT_SET_NO":999,"REV_AT_EPOCH":21696,"BSTAR":-0.00018599,"MEAN_MOTION_DOT":-5.6e-7,"MEAN_MOTION_DDOT":0},{"OBJECT_NAME":"ONEWEB-0184","OBJECT_ID":"2021-031B","EPOCH":"2025-10-21T16:12:00.272160","MEAN_MOTION":13.14500468,"ECCENTRICITY":0.0002458,"INCLINATION":87.9038,"RA_OF_ASC_NODE":337.1891,"ARG_OF_PERICENTER":114.0262,"MEAN_ANOMALY":246.1125,"EPHEMERIS_TYPE":0,"CLASSIFICATION_TYPE":"U","NORAD_CAT_ID":48211,"ELEMENT_SET_NO":999,"REV_AT_EPOCH":21695,"BSTAR":-0.00028348,"MEAN_MOTION_DOT":-9.2e-7,"MEAN_MOTION_DDOT":0},{"OBJECT_NAME":"ONEWEB-0179","OBJECT_ID":"2021-031C","EPOCH":"2025-10-21T15:29:46.552416","MEAN_MOTION":13.14502516,"ECCENTRICITY":0.0001908,"INCLINATION":87.9026,"RA_OF_ASC_NODE":337.2072,"ARG_OF_PERICENTER":93.8908,"MEAN_ANOMALY":266.244,"EPHEMERIS_TYPE":0,"CLASSIFICATION_TYPE":"U","NORAD_CAT_ID":48212,"ELEMENT_SET_NO":999,"REV_AT_EPOCH":21699,"BSTAR":0.00055935,"MEAN_MOTION_DOT":2.2e-6,"MEAN_MOTION_DDOT":0},{"OBJECT_NAME":"ONEWEB-0180","OBJECT_ID":"2021-031D","EPOCH":"2025-10-21T16:16:35.125248","MEAN_MOTION":13.14502394,"ECCENTRICITY":0.000217,"INCLINATION":87.9041,"RA_OF_ASC_NODE":337.1944,"ARG_OF_PERICENTER":94.9639,"MEAN_ANOMALY":265.1739,"EPHEMERIS_TYPE":0,"CLASSIFICATION_TYPE":"U","NORAD_CAT_ID":48213,"ELEMENT_SET_NO":999,"REV_AT_EPOCH":21688,"BSTAR":-0.0005289,"MEAN_MOTION_DOT":-1.83e-6,"MEAN_MOTION_DDOT":0},{"OBJECT_NAME":"ONEWEB-0218","OBJECT_ID":"2021-031E","EPOCH":"2025-10-21T14:58:57.133632","MEAN_MOTION":13.14502566,"ECCENTRICITY":0.0002687,"INCLINATION":87.9037,"RA_OF_ASC_NODE":337.2057,"ARG_OF_PERICENTER":109.2888,"MEAN_ANOMALY":250.8532,"EPHEMERIS_TYPE":0,"CLASSIFICATION_TYPE":"U","NORAD_CAT_ID":48214,"ELEMENT_SET_NO":999,"REV_AT_EPOCH":21703,"BSTAR":-0.00030907,"MEAN_MOTION_DOT":-1.02e-6,"MEAN_MOTION_DDOT":0},{"OBJECT_NAME":"ONEWEB-0209","OBJECT_ID":"2021-031F","EPOCH":"2025-10-21T16:32:34.363104","MEAN_MOTION":13.14527686,"ECCENTRICITY":0.0002336,"INCLINATION":87.9031,"RA_OF_ASC_NODE":337.2343,"ARG_OF_PERICENTER":85.8444,"MEAN_ANOMALY":274.2952,"EPHEMERIS_TYPE":0,"CLASSIFICATION_TYPE":"U","NORAD_CAT_ID":48215,"ELEMENT_SET_NO":999,"REV_AT_EPOCH":21704,"BSTAR":-0.01302,"MEAN_MOTION_DOT":-4.813e-5,"MEAN_MOTION_DDOT":0},{"OBJECT_NAME":"ONEWEB-0198","OBJECT_ID":"2021-031G","EPOCH":"2025-10-21T16:09:54.807264","MEAN_MOTION":13.14503475,"ECCENTRICITY":0.0002376,"INCLINATION":87.9027,"RA_OF_ASC_NODE":337.2349,"ARG_OF_PERICENTER":97.8376,"MEAN_ANOMALY":262.3024,"EPHEMERIS_TYPE":0,"CLASSIFICATION_TYPE":"U","NORAD_CAT_ID":48216,"ELEMENT_SET_NO":999,"REV_AT_EPOCH":21715,"BSTAR":-0.00046871,"MEAN_MOTION_DOT":-1.61e-6,"MEAN_MOTION_DDOT":0},{"OBJECT_NAME":"ONEWEB-0189","OBJECT_ID":"2021-031H","EPOCH":"2025-10-21T16:27:59.510880","MEAN_MOTION":13.145039,"ECCENTRICITY":0.0002284,"INCLINATION":87.9028,"RA_OF_ASC_NODE":337.2058,"ARG_OF_PERICENTER":98.2979,"MEAN_ANOMALY":261.8409,"EPHEMERIS_TYPE":0,"CLASSIFICATION_TYPE":"U","NORAD_CAT_ID":48217,"ELEMENT_SET_NO":999,"REV_AT_EPOCH":21689,"BSTAR":-0.00063606,"MEAN_MOTION_DOT":-2.23e-6,"MEAN_MOTION_DDOT":0},{"OBJECT_NAME":"ONEWEB-0196","OBJECT_ID":"2021-031J","EPOCH":"2025-10-21T15:56:01.665024","MEAN_MOTION":13.14502853,"ECCENTRICITY":0.0002014,"INCLINATION":87.9027,"RA_OF_ASC_NODE":337.2256,"ARG_OF_PERICENTER":95.0351,"MEAN_ANOMALY":265.1008,"EPHEMERIS_TYPE":0,"CLASSIFICATION_TYPE":"U","NORAD_CAT_ID":48218,"ELEMENT_SET_NO":999,"REV_AT_EPOCH":21689,"BSTAR":0.00032473,"MEAN_MOTION_DOT":1.33e-6,"MEAN_MOTION_DDOT":0}]
