ONEWEB-0171             
1 48070U 21025AE  25294.73477354  .00000433  00000+0  11503-2 0  9992
2 48070  87.9028   7.6332 0001889 102.6380 257.4960 13.13470147222316
ONEWEB-0172             
1 48071U 21025AF  25294.71443811  .00000136  00000+0  33754-3 0  9995
2 48071  87.9042   7.6109 0001996 101.3285 258.8069 13.13472558223206
ONEWEB-0174             
1 48072U 21025AG  25294.77199667 -.00000434  00000+0 -12222-2 0  9998
2 48072  87.9038   7.6079 0001845  95.4731 264.6609 13.13469621222537
ONEWEB-0175             
1 48073U 21025AH  25294.72630514  .00000336  00000+0  88627-3 0  9997
2 48073  87.9043   7.5835 0001978 110.1730 249.9612 13.13470491222182
ONEWEB-0177             
1 48074U 21025AJ  25294.73815325  .00000325  00000+0  85471-3 0  9996
2 48074  87.9048   7.5996 0001962  96.7672 263.3680 13.13470773222372
ONEWEB-0178             
1 48075U 21025AK  25294.75690478 -.00000105  00000+0 -32113-3 0  9992
2 48075  87.9046   7.6414 0002103 103.3537 256.7827 13.13467577222423
ONEWEB-0108             
1 48076U 21025AL  25294.71614226  .00000064  00000+0  14047-3 0  9994
2 48076  87.9045   7.5945 0001621  97.9434 262.1879 13.13470754222349
ONEWEB-0169             
1 48077U 21025AM  25294.74830052  .00000241  00000+0  62508-3 0  9997
2 48077  87.9044   7.6102 0001629  97.8996 262.2318 13.13468139221000
ONEWEB-0176             
1 48210U 21031A   25294.54972488 -.00000056  00000+0 -18599-3 0  9998
2 48210  87.9026 337.2385 0001976  99.8539 260.2814 13.14504367216967
ONEWEB-0184             
1 48211U 21031B   25294.67500315 -.00000092  00000+0 -28348-3 0  9992
2 48211  87.9038 337.1891 0002458 114.0262 246.1125 13.14500468216956
ONEWEB-0179             
1 48212U 21031C   25294.64567769  .00000220  00000+0  55935-3 0  9999
2 48212  87.9026 337.2072 0001908  93.8908 266.2440 13.14502516216999
ONEWEB-0180             
1 48213U 21031D   25294.67818432 -.00000183  00000+0 -52890-3 0  9996
2 48213  87.9041 337.1944 0002170  94.9639 265.1739 13.14502394216880
ONEWEB-0218             
1 48214U 21031E   25294.62427238 -.00000102  00000+0 -30907-3 0  9998
2 48214  87.9037 337.2057 0002687 109.2888 250.8532 13.14502566217032
ONEWEB-0209             
1 48215U 21031F   25294.68928661 -.00004813  00000+0 -13020-1 0  9999
2 48215  87.9031 337.2343 0002336  85.8444 274.2952 13.14527686217040
ONEWEB-0198             
1 48216U 21031G   25294.67355101 -.00000161  00000+0 -46871-3 0  9996
2 48216  87.9027 337.2349 0002376  97.8376 262.3024 13.14503475217153
ONEWEB-0189             
1 48217U 21031H   25294.68610545 -.00000223  00000+0 -63606-3 0  9998
2 48217  87.9028 337.2058 0002284  98.2979 261.8409 13.14503900216898
ONEWEB-0196             
1 48218U 21031J   25294.66390816  .00000133  00000+0  32473-3 0  9999
2 48218  87.9027 337.2256 0002014  95.0351 265.1008 13.14502853216896
